start=new Date('2022-03-13T00:00:00.000Z').valueOf();
sats=[{"PERIOD":"91.329","ELEMENT_SET_NO":"999","REF_FRAME":"TEME","ARG_OF_PERICENTER":"10.5125","OBJECT_ID":"2020-012AY","MEAN_MOTION_DOT":"-0.00017554","SEMIMAJOR_AXIS":"6717.909","FILE":"3356931","OBJECT_NAME":"STARLINK-1214","MEAN_MOTION_DDOT":"0.0000000000000","APOAPSIS":"342.421","BSTAR":"-0.00010346000000","REV_AT_EPOCH":"11739","SITE":"AFETR","CENTER_NAME":"EARTH","ECCENTRICITY":"0.00039410","EPOCH":"2022-03-12T21:07:37.447392","NORAD_CAT_ID":"45224","PERIAPSIS":"337.126","CLASSIFICATION_TYPE":"U","TLE_LINE2":"2 45224  53.0476 299.7532 0003941  10.5125 349.5976 15.76709221117396","RCS_SIZE":"LARGE","RA_OF_ASC_NODE":"299.7532","LAUNCH_DATE":"2020-02-17","TIME_SYSTEM":"UTC","DECAY_DATE":null,"INCLINATION":"53.0476","COUNTRY_CODE":"US","OBJECT_TYPE":"PAYLOAD","TLE_LINE1":"1 45224U 20012AY  22071.88029453 -.00017554  00000-0 -10346-3 0  9994","GP_ID":"198602155","MEAN_ELEMENT_THEORY":"SGP4","EPHEMERIS_TYPE":"0","MEAN_MOTION":"15.76709221","MEAN_ANOMALY":"349.5976"},{"NORAD_CAT_ID":"45225","EPOCH":"2022-03-12T17:30:55.010304","CENTER_NAME":"EARTH","ECCENTRICITY":"0.00021800","SITE":"AFETR","REV_AT_EPOCH":"11560","BSTAR":"0.00053480000000","APOAPSIS":"548.658","MEAN_MOTION_DDOT":"0.0000000000000","OBJECT_NAME":"STARLINK-1215","SEMIMAJOR_AXIS":"6925.284","FILE":"3356931","MEAN_MOTION_DOT":"0.00007698","ARG_OF_PERICENTER":"42.6204","OBJECT_ID":"2020-012AZ","ELEMENT_SET_NO":"999","REF_FRAME":"TEME","PERIOD":"95.591","MEAN_ANOMALY":"317.4954","MEAN_MOTION":"15.06421175","EPHEMERIS_TYPE":"0","MEAN_ELEMENT_THEORY":"SGP4","GP_ID":"198602907","TLE_LINE1":"1 45225U 20012AZ  22071.72980336  .00007698  00000-0  53480-3 0  9996","OBJECT_TYPE":"PAYLOAD","INCLINATION":"53.0537","COUNTRY_CODE":"US","DECAY_DATE":null,"TIME_SYSTEM":"UTC","LAUNCH_DATE":"2020-02-17","RA_OF_ASC_NODE":"71.6424","RCS_SIZE":"LARGE","TLE_LINE2":"2 45225  53.0537  71.6424 0002180  42.6204 317.4954 15.06421175115604","CLASSIFICATION_TYPE":"U","PERIAPSIS":"545.639"},{"LAUNCH_DATE":"2020-02-17","RCS_SIZE":"LARGE","RA_OF_ASC_NODE":"71.6173","CLASSIFICATION_TYPE":"U","TLE_LINE2":"2 45226  53.0542  71.6173 0001853  51.8086 308.3070 15.06420870115562","PERIAPSIS":"545.866","TLE_LINE1":"1 45226U 20012BA  22071.73716609  .00004270  00000-0  30524-3 0  9995","INCLINATION":"53.0542","COUNTRY_CODE":"US","OBJECT_TYPE":"PAYLOAD","DECAY_DATE":null,"TIME_SYSTEM":"UTC","EPHEMERIS_TYPE":"0","GP_ID":"198603658","MEAN_ELEMENT_THEORY":"SGP4","MEAN_MOTION":"15.06420870","MEAN_ANOMALY":"308.3070","OBJECT_ID":"2020-012BA","ARG_OF_PERICENTER":"51.8086","ELEMENT_SET_NO":"999","REF_FRAME":"TEME","PERIOD":"95.591","OBJECT_NAME":"STARLINK-1217","FILE":"3356931","SEMIMAJOR_AXIS":"6925.285","MEAN_MOTION_DOT":"0.00004270","REV_AT_EPOCH":"11556","SITE":"AFETR","BSTAR":"0.00030524000000","APOAPSIS":"548.433","MEAN_MOTION_DDOT":"0.0000000000000","EPOCH":"2022-03-12T17:41:31.150176","NORAD_CAT_ID":"45226","CENTER_NAME":"EARTH","ECCENTRICITY":"0.00018530"},{"FILE":"3356931","SEMIMAJOR_AXIS":"6925.277","OBJECT_NAME":"STARLINK-1221","MEAN_MOTION_DOT":"0.00006274","ARG_OF_PERICENTER":"52.0713","OBJECT_ID":"2020-012BB","PERIOD":"95.591","ELEMENT_SET_NO":"999","REF_FRAME":"TEME","NORAD_CAT_ID":"45227","EPOCH":"2022-03-12T16:37:50.512800","ECCENTRICITY":"0.00018280","CENTER_NAME":"EARTH","BSTAR":"0.00043945000000","SITE":"AFETR","REV_AT_EPOCH":"11556","MEAN_MOTION_DDOT":"0.0000000000000","APOAPSIS":"548.408","OBJECT_TYPE":"PAYLOAD","COUNTRY_CODE":"US","INCLINATION":"53.0530","TLE_LINE1":"1 45227U 20012BB  22071.69294575  .00006274  00000-0  43945-3 0  9991","TIME_SYSTEM":"UTC","DECAY_DATE":null,"RA_OF_ASC_NODE":"71.8134","RCS_SIZE":"LARGE","LAUNCH_DATE":"2020-02-17","PERIAPSIS":"545.876","TLE_LINE2":"2 45227  53.0530  71.8134 0001828  52.0713 308.0441 15.06423478115567","CLASSIFICATION_TYPE":"U","MEAN_ANOMALY":"308.0441","MEAN_MOTION":"15.06423478","GP_ID":"198602406","MEAN_ELEMENT_THEORY":"SGP4","EPHEMERIS_TYPE":"0"},{"OBJECT_ID":"2020-012BC","ARG_OF_PERICENTER":"52.6589","REF_FRAME":"TEME","ELEMENT_SET_NO":"999","PERIOD":"95.592","OBJECT_NAME":"STARLINK-1222","FILE":"3356931","SEMIMAJOR_AXIS":"6925.335","MEAN_MOTION_DOT":"-0.00000165","SITE":"AFETR","REV_AT_EPOCH":"11553","BSTAR":"0.00000783440000","APOAPSIS":"548.663","MEAN_MOTION_DDOT":"0.0000000000000","NORAD_CAT_ID":"45228","EPOCH":"2022-03-12T16:43:09.660576","ECCENTRICITY":"0.00021120","CENTER_NAME":"EARTH","LAUNCH_DATE":"2020-02-17","RA_OF_ASC_NODE":"71.7967","RCS_SIZE":"LARGE","TLE_LINE2":"2 45228  53.0542  71.7967 0002112  52.6589 307.4592 15.06404286115531","CLASSIFICATION_TYPE":"U","PERIAPSIS":"545.738","TLE_LINE1":"1 45228U 20012BC  22071.69663959 -.00000165  00000-0  78344-5 0  9995","OBJECT_TYPE":"PAYLOAD","COUNTRY_CODE":"US","INCLINATION":"53.0542","DECAY_DATE":null,"TIME_SYSTEM":"UTC","EPHEMERIS_TYPE":"0","GP_ID":"198602656","MEAN_ELEMENT_THEORY":"SGP4","MEAN_ANOMALY":"307.4592","MEAN_MOTION":"15.06404286"},{"SITE":"AFETR","REV_AT_EPOCH":"11554","BSTAR":"0.00025835000000","APOAPSIS":"548.379","MEAN_MOTION_DDOT":"0.0000000000000","NORAD_CAT_ID":"45229","EPOCH":"2022-03-12T17:25:36.583104","ECCENTRICITY":"0.00017480","CENTER_NAME":"EARTH","ARG_OF_PERICENTER":"52.0451","OBJECT_ID":"2020-012BD","ELEMENT_SET_NO":"999","REF_FRAME":"TEME","PERIOD":"95.591","OBJECT_NAME":"STARLINK-1226","SEMIMAJOR_AXIS":"6925.304","FILE":"3356931","MEAN_MOTION_DOT":"0.00003570","EPHEMERIS_TYPE":"0","MEAN_ELEMENT_THEORY":"SGP4","GP_ID":"198603408","MEAN_ANOMALY":"308.0695","MEAN_MOTION":"15.06414621","LAUNCH_DATE":"2020-02-17","RA_OF_ASC_NODE":"71.6741","RCS_SIZE":"LARGE","TLE_LINE2":"2 45229  53.0555  71.6741 0001748  52.0451 308.0695 15.06414621115547","CLASSIFICATION_TYPE":"U","PERIAPSIS":"545.958","TLE_LINE1":"1 45229U 20012BD  22071.72611786  .00003570  00000-0  25835-3 0  9998","OBJECT_TYPE":"PAYLOAD","COUNTRY_CODE":"US","INCLINATION":"53.0555","DECAY_DATE":null,"TIME_SYSTEM":"UTC"},{"ECCENTRICITY":"0.00100880","CENTER_NAME":"EARTH","NORAD_CAT_ID":"45230","EPOCH":"2022-03-12T17:21:10.728576","APOAPSIS":"559.355","MEAN_MOTION_DDOT":"0.0000000000000","SITE":"AFETR","REV_AT_EPOCH":"11566","BSTAR":"-0.03716200000000","MEAN_MOTION_DOT":"-0.00499743","OBJECT_NAME":"STARLINK-1227","FILE":"3356931","SEMIMAJOR_AXIS":"6930.499","ELEMENT_SET_NO":"999","REF_FRAME":"TEME","PERIOD":"95.699","OBJECT_ID":"2020-012BE","ARG_OF_PERICENTER":"129.5210","MEAN_ANOMALY":"230.6671","MEAN_MOTION":"15.04721225","EPHEMERIS_TYPE":"0","GP_ID":"198603158","MEAN_ELEMENT_THEORY":"SGP4","DECAY_DATE":null,"TIME_SYSTEM":"UTC","TLE_LINE1":"1 45230U 20012BE  22071.72304084 -.00499743  00000-0 -37162-1 0  9997","OBJECT_TYPE":"PAYLOAD","INCLINATION":"53.0538","COUNTRY_CODE":"US","TLE_LINE2":"2 45230  53.0538  71.6844 0010088 129.5210 230.6671 15.04721225115660","CLASSIFICATION_TYPE":"U","PERIAPSIS":"545.372","LAUNCH_DATE":"2020-02-17","RA_OF_ASC_NODE":"71.6844","RCS_SIZE":"LARGE"},{"MEAN_ANOMALY":"82.1001","MEAN_MOTION":"15.76724786","EPHEMERIS_TYPE":"0","MEAN_ELEMENT_THEORY":"SGP4","GP_ID":"198601906","DECAY_DATE":null,"TIME_SYSTEM":"UTC","TLE_LINE1":"1 45231U 20012BF  22071.92270296 -.00014809  00000-0 -86296-4 0  9998","OBJECT_TYPE":"PAYLOAD","COUNTRY_CODE":"US","INCLINATION":"53.0276","TLE_LINE2":"2 45231  53.0276 304.5784 0009172 277.8977  82.1001 15.76724786117315","CLASSIFICATION_TYPE":"U","PERIAPSIS":"333.568","LAUNCH_DATE":"2020-02-17","RA_OF_ASC_NODE":"304.5784","RCS_SIZE":"LARGE","ECCENTRICITY":"0.00091720","CENTER_NAME":"EARTH","NORAD_CAT_ID":"45231","EPOCH":"2022-03-12T22:08:41.535744","APOAPSIS":"345.891","MEAN_MOTION_DDOT":"0.0000000000000","SITE":"AFETR","REV_AT_EPOCH":"11731","BSTAR":"-0.00008629600000","MEAN_MOTION_DOT":"-0.00014809","OBJECT_NAME":"STARLINK-1229","FILE":"3356931","SEMIMAJOR_AXIS":"6717.865","ELEMENT_SET_NO":"999","REF_FRAME":"TEME","PERIOD":"91.329","ARG_OF_PERICENTER":"277.8977","OBJECT_ID":"2020-012BF"},{"BSTAR":"0.00002339000000","REV_AT_EPOCH":"11561","SITE":"AFETR","MEAN_MOTION_DDOT":"0.0000000000000","APOAPSIS":"548.639","EPOCH":"2022-03-12T11:14:04.347168","NORAD_CAT_ID":"45232","ECCENTRICITY":"0.00020890","CENTER_NAME":"EARTH","ARG_OF_PERICENTER":"54.0336","OBJECT_ID":"2020-012BG","PERIOD":"95.592","REF_FRAME":"TEME","ELEMENT_SET_NO":"999","FILE":"3356520","SEMIMAJOR_AXIS":"6925.328","OBJECT_NAME":"STARLINK-1235","MEAN_MOTION_DOT":"0.00000067","MEAN_ELEMENT_THEORY":"SGP4","GP_ID":"198567812","EPHEMERIS_TYPE":"0","MEAN_MOTION":"15.06406868","MEAN_ANOMALY":"306.0847","RCS_SIZE":"LARGE","RA_OF_ASC_NODE":"72.8226","LAUNCH_DATE":"2020-02-17","PERIAPSIS":"545.746","CLASSIFICATION_TYPE":"U","TLE_LINE2":"2 45232  53.0541  72.8226 0002089  54.0336 306.0847 15.06406868115619","INCLINATION":"53.0541","COUNTRY_CODE":"US","OBJECT_TYPE":"PAYLOAD","TLE_LINE1":"1 45232U 20012BG  22071.46810587  .00000067  00000-0  23390-4 0  9996","TIME_SYSTEM":"UTC","DECAY_DATE":null},{"EPHEMERIS_TYPE":"0","MEAN_ELEMENT_THEORY":"SGP4","GP_ID":"198602908","MEAN_ANOMALY":"295.8294","MEAN_MOTION":"15.06406057","TLE_LINE2":"2 45233  53.0545  91.4364 0001700  64.2870 295.8294 15.06406057115362","CLASSIFICATION_TYPE":"U","PERIAPSIS":"546.018","LAUNCH_DATE":"2020-02-17","RA_OF_ASC_NODE":"91.4364","RCS_SIZE":"LARGE","DECAY_DATE":null,"TIME_SYSTEM":"UTC","TLE_LINE1":"1 45233U 20012BH  22071.77957047  .00000170  00000-0  30313-4 0  9992","OBJECT_TYPE":"PAYLOAD","INCLINATION":"53.0545","COUNTRY_CODE":"US","APOAPSIS":"548.372","MEAN_MOTION_DDOT":"0.0000000000000","SITE":"AFETR","REV_AT_EPOCH":"11536","BSTAR":"0.00003031300000","ECCENTRICITY":"0.00017000","CENTER_NAME":"EARTH","NORAD_CAT_ID":"45233","EPOCH":"2022-03-12T18:42:34.888608","ELEMENT_SET_NO":"999","REF_FRAME":"TEME","PERIOD":"95.592","ARG_OF_PERICENTER":"64.2870","OBJECT_ID":"2020-012BH","MEAN_MOTION_DOT":"0.00000170","OBJECT_NAME":"STARLINK-1238","SEMIMAJOR_AXIS":"6925.330","FILE":"3356931"}];
